[{"OBJECT_NAME":"STARLINK-1995","OBJECT_ID":"2021-009AU","EPOCH":"2026-03-09T22:00:01.999584","MEAN_MOTION":15.56337819,"ECCENTRICITY":0.00072287,"INCLINATION":53.0479,"RA_OF_ASC_NODE":18.2943,"ARG_OF_PERICENTER":82.4269,"MEAN_ANOMALY":357.8664,"EPHEMERIS_TYPE":0,"CLASSIFICATION_TYPE":"U","NORAD_CAT_ID":47590,"ELEMENT_SET_NO":999,"REV_AT_EPOCH":586,"BSTAR":0.0018767975,"MEAN_MOTION_DOT":0.00136547,"MEAN_MOTION_DDOT":0},{"OBJECT_NAME":"OBJECT D","OBJECT_ID":"2022-019D","EPOCH":"2026-03-09T23:54:04.101984","MEAN_MOTION":15.5899331,"ECCENTRICITY":0.00068562,"INCLINATION":97.3688,"RA_OF_ASC_NODE":157.042,"ARG_OF_PERICENTER":142.6655,"MEAN_ANOMALY":217.5079,"EPHEMERIS_TYPE":0,"CLASSIFICATION_TYPE":"U","NORAD_CAT_ID":51827,"ELEMENT_SET_NO":999,"REV_AT_EPOCH":22419,"BSTAR":0.00075591427,"MEAN_MOTION_DOT":0.00059056,"MEAN_MOTION_DDOT":0}]
